      2.10          N: GNSS NAV DATA                        RINEX VERSION / TYPE
fic2rin                                 11/15/2022 00:17:40 PGM / RUN BY / DATE
                                                            END OF HEADER
2  22 11 14  1 59 44.0 -.637953635305D-03  .170530256582D-11  .000000000000D+00
     .200000000000D+01 -.204062500000D+02  .440839791318D-08 -.178283467072D+01
    -.724568963051D-06  .199954445707D-01  .263936817646D-05  .515369730186D+04
     .935840000000D+05  .279396772385D-07 -.603018874317D+00  .456348061562D-06
     .966906934298D+00  .332406250000D+03 -.136354124807D+01 -.810569477758D-08
    -.145720355552D-09  .100000000000D+01  .223600000000D+04  .000000000000D+00
     .240000000000D+01  .000000000000D+00 -.176951289177D-07  .200000000000D+01
     .864000000000D+05  .400000000000D+01
26 22 11 14  6  0  0.0  .235728919506D-03  .113686837722D-11  .000000000000D+00
     .280000000000D+02  .435000000000D+02  .496234955892D-08 -.100270800974D+01
     .220537185669D-05  .744328077417D-02  .801868736744D-05  .515358951378D+04
     .108000000000D+06  .178813934326D-06 -.267992131030D+01 -.521540641785D-07
     .936054346032D+00  .207843750000D+03  .395758910913D+00 -.814069623553D-08
    -.228580949885D-09  .100000000000D+01  .223600000000D+04  .000000000000D+00
     .240000000000D+01  .000000000000D+00  .698491930962D-08  .280000000000D+02
     .100800000000D+06  .400000000000D+01
18 22 11 14  6  0  0.0 -.213123857975D-04 -.139834810398D-10  .000000000000D+00
     .121000000000D+03 -.245625000000D+02  .437303929750D-08  .143753749365D+01
    -.115483999252D-05  .295292492956D-02  .327825546265D-05  .515371813774D+04
     .108000000000D+06  .100582838058D-06 -.504517051000D+00 -.372529029846D-08
     .972985939696D+00  .321312500000D+03 -.314077558897D+01 -.818105505950D-08
    -.950039572962D-10  .100000000000D+01  .223600000000D+04  .000000000000D+00
     .240000000000D+01  .000000000000D+00 -.838190317154D-08  .121000000000D+03
     .100800000000D+06  .400000000000D+01
14 22 11 14  6  0  0.0 -.832364894450D-04  .511590769747D-11  .000000000000D+00
     .530000000000D+02  .516562500000D+02  .465340811884D-08 -.125473658573D+00
     .268220901489D-05  .239914027043D-02  .858306884766D-05  .515365859985D+04
     .108000000000D+06  .242143869400D-07 -.258347345762D+01 -.130385160446D-07
     .951001881206D+00  .208500000000D+03 -.304543629611D+01 -.800640492747D-08
    -.255367779950D-09  .100000000000D+01  .223600000000D+04  .000000000000D+00
     .240000000000D+01  .000000000000D+00 -.791624188423D-08  .821000000000D+03
     .100800000000D+06  .400000000000D+01
11 22 11 14  6  0  0.0 -.394778326154D-04 -.591171556152D-11  .000000000000D+00
     .139000000000D+03 -.267812500000D+02  .449733018900D-08  .294262412219D+01
    -.139884650707D-05  .802426133305D-03  .324845314026D-05  .515366742706D+04
     .108000000000D+06 -.447034835815D-07 -.470902855223D+00  .279396772385D-07
     .964442550778D+00  .318531250000D+03 -.288628259143D+01 -.819248410699D-08
    -.478591363823D-10  .100000000000D+01  .223600000000D+04  .000000000000D+00
     .240000000000D+01  .000000000000D+00 -.884756445885D-08  .651000000000D+03
     .100800000000D+06  .400000000000D+01
31 22 11 14  6  0  0.0 -.200115144253D-03 -.125055521494D-11  .000000000000D+00
     .135000000000D+03  .387500000000D+01  .480198573627D-08  .820983247762D-01
     .353902578354D-06  .107087598881D-01  .672787427902D-05  .515360618782D+04
     .108000000000D+06  .102445483208D-06  .264083508993D+01  .119209289551D-06
     .954845225936D+00  .244968750000D+03  .462280597465D+00 -.818891252965D-08
    -.971469037013D-10  .100000000000D+01  .223600000000D+04  .000000000000D+00
     .240000000000D+01  .000000000000D+00 -.135041773319D-07  .135000000000D+03
     .100800000000D+06  .400000000000D+01
16 22 11 14  6  0  0.0 -.526888761669D-03  .000000000000D+00  .000000000000D+00
     .930000000000D+02  .614062500000D+02  .421910431406D-08 -.189534615390D+01
     .288896262646D-05  .129923548084D-01  .802241265774D-05  .515373982048D+04
     .108000000000D+06  .154599547386D-06 -.252945821676D+01 -.128522515297D-06
     .967407960333D+00  .223906250000D+03  .738741650641D+00 -.761781731267D-08
    -.689314426998D-10  .100000000000D+01  .223600000000D+04  .000000000000D+00
     .240000000000D+01  .000000000000D+00 -.102445483208D-07  .930000000000D+02
     .100800000000D+06  .400000000000D+01
32 22 11 14  6  0  0.0 -.295619014651D-03 -.126192389871D-10  .000000000000D+00
     .960000000000D+02 -.213437500000D+02  .448697261471D-08 -.205837643057D+01
    -.104866921902D-05  .619878619909D-02  .831298530102D-05  .515366695976D+04
     .108000000000D+06 -.186264514923D-08  .156213838261D+01 -.150874257088D-06
     .958426746367D+00  .219875000000D+03 -.229812489477D+01 -.774139388870D-08
     .315727437029D-09  .100000000000D+01  .223600000000D+04  .000000000000D+00
     .240000000000D+01  .000000000000D+00  .465661287308D-09  .960000000000D+02
     .100800000000D+06  .400000000000D+01
30 22 11 14  6  0  0.0 -.536713749170D-03  .341060513165D-12  .000000000000D+00
     .700000000000D+02  .237500000000D+01  .520985986872D-08  .514018365991D+00
     .223517417908D-06  .594831607305D-02  .690668821335D-05  .515367732048D+04
     .108000000000D+06  .186264514923D-08  .263071187237D+01  .152736902237D-06
     .935822776341D+00  .232375000000D+03 -.266280411840D+01 -.827998775187D-08
    -.978612191697D-10  .100000000000D+01  .223600000000D+04  .000000000000D+00
     .240000000000D+01  .000000000000D+00  .372529029846D-08  .700000000000D+02
     .100800000000D+06  .400000000000D+01
20 22 11 14  6  0  0.0  .470292288810D-03 -.306954461848D-11  .000000000000D+00
     .790000000000D+02 -.849375000000D+02  .471698219553D-08  .229717783379D+01
    -.437907874584D-05  .474115647376D-02  .644847750664D-05  .515369023705D+04
     .108000000000D+06 -.596046447754D-07  .360554624124D+00  .484287738800D-07
     .945852523674D+00  .250000000000D+03 -.303546820638D+01 -.814926802115D-08
    -.467876631797D-10  .100000000000D+01  .223600000000D+04  .000000000000D+00
     .240000000000D+01  .000000000000D+00 -.838190317154D-08  .790000000000D+02
     .100800000000D+06  .400000000000D+01
19 22 11 14  6  0  0.0  .237118452787D-03  .500222085975D-11  .000000000000D+00
     .970000000000D+02  .754375000000D+02  .418981737985D-08 -.672329579077D+00
     .391528010368D-05  .902850716375D-02  .560283660889D-05  .515373750877D+04
     .108000000000D+06 -.104308128357D-06 -.146418582798D+01 -.763684511185D-07
     .975500444252D+00  .280937500000D+03  .221064858031D+01 -.810105172704D-08
     .147506144223D-09  .100000000000D+01  .223600000000D+04  .000000000000D+00
     .240000000000D+01  .000000000000D+00 -.153668224812D-07  .970000000000D+02
     .100800000000D+06  .400000000000D+01
17 22 11 14  6  0  0.0  .677728094161D-03  .329691829393D-11  .000000000000D+00
     .710000000000D+02  .902187500000D+02  .410267089271D-08 -.278025992089D+01
     .470131635666D-05  .138744948199D-01  .522471964359D-05  .515366220284D+04
     .108000000000D+06  .169500708580D-06 -.150888986737D+01  .134110450745D-06
     .976553672123D+00  .284156250000D+03 -.146052692943D+01 -.772317884426D-08
     .126790995640D-09  .100000000000D+01  .223600000000D+04  .000000000000D+00
     .240000000000D+01  .000000000000D+00 -.111758708954D-07  .710000000000D+02
     .100800000000D+06  .400000000000D+01
22 22 11 14  6  0  0.0  .364212784916D-03  .727595761418D-11  .000000000000D+00
     .460000000000D+02 -.180312500000D+02  .435589572626D-08 -.301906215213D+01
    -.866129994392D-06  .135132715805D-01  .826269388199D-05  .515375315094D+04
     .108000000000D+06  .912696123123D-07  .165340881169D+01 -.670552253723D-07
     .961539721932D+00  .217718750000D+03 -.184375827449D+01 -.756210070613D-08
     .330370904131D-09  .100000000000D+01  .223600000000D+04  .000000000000D+00
     .240000000000D+01  .000000000000D+00 -.838190317154D-08  .460000000000D+02
     .100800000000D+06  .400000000000D+01
25 22 11 14  6  0  0.0  .392420683056D-03  .375166564481D-11  .000000000000D+00
     .500000000000D+02  .451875000000D+02  .466912305915D-08 -.241295971129D+00
     .242516398430D-05  .107761386316D-01  .840239226818D-05  .515359086227D+04
     .108000000000D+06 -.167638063431D-07 -.262788464860D+01  .169500708580D-06
     .955231705486D+00  .219750000000D+03  .100555362093D+01 -.816319717279D-08
    -.211080220910D-09  .100000000000D+01  .223600000000D+04  .000000000000D+00
     .240000000000D+01  .000000000000D+00  .558793544769D-08  .500000000000D+02
     .100800000000D+06  .400000000000D+01
